{"type":"Feature","properties":{"MUN":"WILDWOOD CREST BORO","COUNTY":"CAPE MAY","MUN_LABEL":"Wildwood Crest Borough","MUN_TYPE":"Borough","NAME":"Wildwood Crest Borough","GNIS_NAME":"Borough of Wildwood Crest"},"geometry":{"type":"Polygon","coordinates":[[[-74.8333139,38.9860786],[-74.8333125,38.9860433],[-74.8322989,38.9851898],[-74.8322105,38.9851153],[-74.8318191,38.9847895],[-74.8314192,38.9844587],[-74.8308946,38.9840248],[-74.8302777,38.9835047],[-74.8300909,38.9833472],[-74.8296642,38.982994],[-74.8292373,38.9826406],[-74.8285127,38.9820372],[-74.8280308,38.9816368],[-74.8278216,38.9814629],[-74.8267015,38.9805272],[-74.8263903,38.9802692],[-74.8256272,38.9796366],[-74.8254523,38.9794914],[-74.8250943,38.9791913],[-74.8247517,38.9789075],[-74.8244323,38.9786428],[-74.8238702,38.9781684],[-74.8238077,38.9781168],[-74.8232237,38.9776032],[-74.8204988,38.9752065],[-74.8218342,38.9744226],[-74.8238191,38.9732305],[-74.8253769,38.9722549],[-74.8280348,38.9705423],[-74.8296092,38.9695182],[-74.8305239,38.9688872],[-74.8317669,38.9680223],[-74.8326869,38.9673297],[-74.8343275,38.9660461],[-74.8349165,38.9656005],[-74.8352253,38.9654238],[-74.8355789,38.9652119],[-74.8361655,38.9648586],[-74.8370183,38.9642452],[-74.8376745,38.9637379],[-74.8384234,38.9631952],[-74.8388553,38.9628555],[-74.8390237,38.9627716],[-74.8391527,38.9626701],[-74.8397861,38.9621145],[-74.8405186,38.9615225],[-74.8414091,38.9608498],[-74.8419998,38.9604261],[-74.8427699,38.9598648],[-74.8432729,38.9594561],[-74.8442364,38.9586833],[-74.8452258,38.9578808],[-74.8461752,38.9571302],[-74.8462536,38.9570624],[-74.8553372,38.9646219],[-74.8499986,38.9685184],[-74.8496009,38.9687655],[-74.8493372,38.9688924],[-74.8490163,38.9690198],[-74.8486205,38.9691531],[-74.8483273,38.9692265],[-74.84785,38.9693218],[-74.8460373,38.9695584],[-74.8452091,38.9705667],[-74.8447008,38.9714766],[-74.8419917,38.9741103],[-74.8415556,38.9745004],[-74.841353,38.9751784],[-74.8415106,38.9753535],[-74.8395401,38.9776323],[-74.8391954,38.9780066],[-74.8388092,38.9786724],[-74.8381969,38.9796189],[-74.8380211,38.9796851],[-74.8364382,38.9804251],[-74.838129,38.9826794],[-74.8382329,38.9838137],[-74.8359863,38.9866969],[-74.8354974,38.9872935],[-74.8347927,38.9867151],[-74.8340199,38.9891643],[-74.8333837,38.9889091],[-74.8333139,38.9860786]]]}}
